{"type": "FeatureCollection", "features": [ {"type": "Feature", "properties": {"norad_id": 34400, "name": "COSMOS 2251 DEB", "group": "cosmos-2251-debris", "lat": -22.444508625369657, "lon": -157.5832746877919, "alt_km": 405.66126049420654, "timestamp": "2025-12-16T05:49:09.607486+00:00", "meta": {"OBJECT_NAME": "COSMOS 2251 DEB", "OBJECT_ID": "1993-036QR", "EPOCH": "2025-12-15T11:57:39.797856", "MEAN_MOTION": 15.54751446, "ECCENTRICITY": 0.00044109, "INCLINATION": 73.9646, "RA_OF_ASC_NODE": 17.2441, "ARG_OF_PERICENTER": 262.7779, "MEAN_ANOMALY": 97.2935, "EPHEMERIS_TYPE": 0, "CLASSIFICATION_TYPE": "U", "NORAD_CAT_ID": 34400, "ELEMENT_SET_NO": 999, "REV_AT_EPOCH": 90017, "BSTAR": 0.0025341124, "MEAN_MOTION_DOT": 0.00172222, "MEAN_MOTION_DDOT": 0}, "tle": {"line1": "1 34400U 93036QR  25349.49837729  .00172222  00000+0  25341-2 0  9996", "line2": "2 34400  73.9646  17.2441 0004410 262.7779  97.2935 15.54751446900170"}}, "geometry": {"type": "Point", "coordinates": [-157.5832746877919, -22.444508625369657]}}, {"type": "Feature", "properties": {"norad_id": 34409, "name": "COSMOS 2251 DEB", "group": "cosmos-2251-debris", "lat": -22.491420657450767, "lon": -66.60916355764867, "alt_km": 659.1299742138217, "timestamp": "2025-12-16T05:49:09.607496+00:00", "meta": {"OBJECT_NAME": "COSMOS 2251 DEB", "OBJECT_ID": "1993-036RA", "EPOCH": "2025-12-15T21:56:50.937216", "MEAN_MOTION": 14.58034966, "ECCENTRICITY": 0.00800049, "INCLINATION": 74.0635, "RA_OF_ASC_NODE": 300.8078, "ARG_OF_PERICENTER": 14.2931, "MEAN_ANOMALY": 42.0143, "EPHEMERIS_TYPE": 0, "CLASSIFICATION_TYPE": "U", "NORAD_CAT_ID": 34409, "ELEMENT_SET_NO": 999, "REV_AT_EPOCH": 89239, "BSTAR": 0.00025608058, "MEAN_MOTION_DOT": 1.199e-05, "MEAN_MOTION_DDOT": 0}, "tle": {"line1": "1 34409U 93036RA  25349.91447844  .00001199  00000+0  25608-3 0  9998", "line2": "2 34409  74.0635 300.8078 0080004  14.2931  42.0143 14.58034966892396"}}, "geometry": {"type": "Point", "coordinates": [-66.60916355764867, -22.491420657450767]}}, {"type": "Feature", "properties": {"norad_id": 34410, "name": "COSMOS 2251 DEB", "group": "cosmos-2251-debris", "lat": 60.698051967627634, "lon": -74.38074035995096, "alt_km": 488.85749631597446, "timestamp": "2025-12-16T05:49:09.607506+00:00", "meta": {"OBJECT_NAME": "COSMOS 2251 DEB", "OBJECT_ID": "1993-036RB", "EPOCH": "2025-12-15T18:44:08.365632", "MEAN_MOTION": 15.19232133, "ECCENTRICITY": 0.00217416, "INCLINATION": 73.7359, "RA_OF_ASC_NODE": 255.258, "ARG_OF_PERICENTER": 96.5566, "MEAN_ANOMALY": 324.1501, "EPHEMERIS_TYPE": 0, "CLASSIFICATION_TYPE": "U", "NORAD_CAT_ID": 34410, "ELEMENT_SET_NO": 999, "REV_AT_EPOCH": 89820, "BSTAR": 0.001528987, "MEAN_MOTION_DOT": 0.00032522, "MEAN_MOTION_DDOT": 0}, "tle": {"line1": "1 34410U 93036RB  25349.78065238  .00032522  00000+0  15290-2 0  9997", "line2": "2 34410  73.7359 255.2580 0021741  96.5566 324.1501 15.19232133898200"}}, "geometry": {"type": "Point", "coordinates": [-74.38074035995096, 60.698051967627634]}}, {"type": "Feature", "properties": {"norad_id": 34412, "name": "COSMOS 2251 DEB", "group": "cosmos-2251-debris", "lat": 47.2712291173899, "lon": -23.816576310428133, "alt_km": 597.228384398376, "timestamp": "2025-12-16T05:49:09.607517+00:00", "meta": {"OBJECT_NAME": "COSMOS 2251 DEB", "OBJECT_ID": "1993-036RD", "EPOCH": "2025-12-15T22:57:39.248928", "MEAN_MOTION": 14.47173258, "ECCENTRICITY": 0.01872686, "INCLINATION": 73.9481, "RA_OF_ASC_NODE": 318.5592, "ARG_OF_PERICENTER": 52.886, "MEAN_ANOMALY": 308.9245, "EPHEMERIS_TYPE": 0, "CLASSIFICATION_TYPE": "U", "NORAD_CAT_ID": 34412, "ELEMENT_SET_NO": 999, "REV_AT_EPOCH": 87697, "BSTAR": 0.0010395312, "MEAN_MOTION_DOT": 4.701e-05, "MEAN_MOTION_DDOT": 0}, "tle": {"line1": "1 34412U 93036RD  25349.95670427  .00004701  00000+0  10395-2 0  9999", "line2": "2 34412  73.9481 318.5592 0187268  52.8860 308.9245 14.47173258876972"}}, "geometry": {"type": "Point", "coordinates": [-23.816576310428133, 47.2712291173899]}}, {"type": "Feature", "properties": {"norad_id": 34413, "name": "COSMOS 2251 DEB", "group": "cosmos-2251-debris", "lat": -43.71055588604692, "lon": -117.37102980190643, "alt_km": 739.6561770941044, "timestamp": "2025-12-16T05:49:09.607527+00:00", "meta": {"OBJECT_NAME": "COSMOS 2251 DEB", "OBJECT_ID": "1993-036RE", "EPOCH": "2025-12-15T20:15:10.819872", "MEAN_MOTION": 14.29124348, "ECCENTRICITY": 0.00909495, "INCLINATION": 74.0308, "RA_OF_ASC_NODE": 259.2396, "ARG_OF_PERICENTER": 335.1398, "MEAN_ANOMALY": 89.4456, "EPHEMERIS_TYPE": 0, "CLASSIFICATION_TYPE": "U", "NORAD_CAT_ID": 34413, "ELEMENT_SET_NO": 999, "REV_AT_EPOCH": 87175, "BSTAR": 0.00092303151, "MEAN_MOTION_DOT": 2.422e-05, "MEAN_MOTION_DDOT": 0}, "tle": {"line1": "1 34413U 93036RE  25349.84387523  .00002422  00000+0  92303-3 0  9998", "line2": "2 34413  74.0308 259.2396 0090949 335.1398  89.4456 14.29124348871750"}}, "geometry": {"type": "Point", "coordinates": [-117.37102980190643, -43.71055588604692]}}, {"type": "Feature", "properties": {"norad_id": 34420, "name": "COSMOS 2251 DEB", "group": "cosmos-2251-debris", "lat": -0.46184181040422895, "lon": -82.68372240625145, "alt_km": 609.0652704465019, "timestamp": "2025-12-16T05:49:09.607537+00:00", "meta": {"OBJECT_NAME": "COSMOS 2251 DEB", "OBJECT_ID": "1993-036RM", "EPOCH": "2025-12-15T18:16:55.693344", "MEAN_MOTION": 14.68307813, "ECCENTRICITY": 0.01065152, "INCLINATION": 74.0336, "RA_OF_ASC_NODE": 98.1135, "ARG_OF_PERICENTER": 218.5512, "MEAN_ANOMALY": 302.5718, "EPHEMERIS_TYPE": 0, "CLASSIFICATION_TYPE": "U", "NORAD_CAT_ID": 34420, "ELEMENT_SET_NO": 999, "REV_AT_EPOCH": 89814, "BSTAR": 0.00019978844, "MEAN_MOTION_DOT": 1.22e-05, "MEAN_MOTION_DDOT": 0}, "tle": {"line1": "1 34420U 93036RM  25349.76175571  .00001220  00000+0  19979-3 0  9998", "line2": "2 34420  74.0336  98.1135 0106515 218.5512 302.5718 14.68307813898144"}}, "geometry": {"type": "Point", "coordinates": [-82.68372240625145, -0.46184181040422895]}}, {"type": "Feature", "properties": {"norad_id": 34425, "name": "COSMOS 2251 DEB", "group": "cosmos-2251-debris", "lat": -10.629458972739037, "lon": -129.11375324221893, "alt_km": 673.5485960094102, "timestamp": "2025-12-16T05:49:09.607547+00:00", "meta": {"OBJECT_NAME": "COSMOS 2251 DEB", "OBJECT_ID": "1993-036RS", "EPOCH": "2025-12-15T14:10:13.909728", "MEAN_MOTION": 14.62146734, "ECCENTRICITY": 0.00246481, "INCLINATION": 74.0205, "RA_OF_ASC_NODE": 49.0526, "ARG_OF_PERICENTER": 174.8254, "MEAN_ANOMALY": 185.3173, "EPHEMERIS_TYPE": 0, "CLASSIFICATION_TYPE": "U", "NORAD_CAT_ID": 34425, "ELEMENT_SET_NO": 999, "REV_AT_EPOCH": 88782, "BSTAR": 0.00038919217, "MEAN_MOTION_DOT": 1.936e-05, "MEAN_MOTION_DDOT": 0}, "tle": {"line1": "1 34425U 93036RS  25349.59043877  .00001936  00000+0  38919-3 0  9996", "line2": "2 34425  74.0205  49.0526 0024648 174.8254 185.3173 14.62146734887828"}}, "geometry": {"type": "Point", "coordinates": [-129.11375324221893, -10.629458972739037]}}, {"type": "Feature", "properties": {"norad_id": 34429, "name": "COSMOS 2251 DEB", "group": "cosmos-2251-debris", "lat": 1.469551732718447, "lon": -20.037526071906182, "alt_km": 445.7083960058426, "timestamp": "2025-12-16T05:49:09.607557+00:00", "meta": {"OBJECT_NAME": "COSMOS 2251 DEB", "OBJECT_ID": "1993-036RW", "EPOCH": "2025-12-15T21:58:06.886272", "MEAN_MOTION": 15.42937946, "ECCENTRICITY": 0.00088752, "INCLINATION": 73.9688, "RA_OF_ASC_NODE": 161.0978, "ARG_OF_PERICENTER": 359.8744, "MEAN_ANOMALY": 162.2244, "EPHEMERIS_TYPE": 0, "CLASSIFICATION_TYPE": "U", "NORAD_CAT_ID": 34429, "ELEMENT_SET_NO": 999, "REV_AT_EPOCH": 89497, "BSTAR": 0.0039014101, "MEAN_MOTION_DOT": 0.00175832, "MEAN_MOTION_DDOT": 0}, "tle": {"line1": "1 34429U 93036RW  25349.91535748  .00175832  00000+0  39014-2 0  9992", "line2": "2 34429  73.9688 161.0978 0008875 359.8744 162.2244 15.42937946894973"}}, "geometry": {"type": "Point", "coordinates": [-20.037526071906182, 1.469551732718447]}}, {"type": "Feature", "properties": {"norad_id": 34430, "name": "COSMOS 2251 DEB", "group": "cosmos-2251-debris", "lat": 46.75633414043903, "lon": -45.399789204535075, "alt_km": 723.8340653136656, "timestamp": "2025-12-16T05:49:09.607567+00:00", "meta": {"OBJECT_NAME": "COSMOS 2251 DEB", "OBJECT_ID": "1993-036RX", "EPOCH": "2025-12-15T06:14:43.575648", "MEAN_MOTION": 14.39641546, "ECCENTRICITY": 0.00604814, "INCLINATION": 74.052, "RA_OF_ASC_NODE": 298.7113, "ARG_OF_PERICENTER": 7.7475, "MEAN_ANOMALY": 352.4599, "EPHEMERIS_TYPE": 0, "CLASSIFICATION_TYPE": "U", "NORAD_CAT_ID": 34430, "ELEMENT_SET_NO": 999, "REV_AT_EPOCH": 87991, "BSTAR": 0.00044069531, "MEAN_MOTION_DOT": 1.381e-05, "MEAN_MOTION_DDOT": 0}, "tle": {"line1": "1 34430U 93036RX  25349.26022657  .00001381  00000+0  44070-3 0  9998", "line2": "2 34430  74.0520 298.7113 0060481   7.7475 352.4599 14.39641546879918"}}, "geometry": {"type": "Point", "coordinates": [-45.399789204535075, 46.75633414043903]}}, {"type": "Feature", "properties": {"norad_id": 34431, "name": "COSMOS 2251 DEB", "group": "cosmos-2251-debris", "lat": 5.547756391726994, "lon": -12.729977835660545, "alt_km": 751.7979795656074, "timestamp": "2025-12-16T05:49:09.607578+00:00", "meta": {"OBJECT_NAME": "COSMOS 2251 DEB", "OBJECT_ID": "1993-036RY", "EPOCH": "2025-12-15T22:17:17.901024", "MEAN_MOTION": 14.28785587, "ECCENTRICITY": 0.00681464, "INCLINATION": 74.0739, "RA_OF_ASC_NODE": 169.4271, "ARG_OF_PERICENTER": 154.2806, "MEAN_ANOMALY": 206.1759, "EPHEMERIS_TYPE": 0, "CLASSIFICATION_TYPE": "U", "NORAD_CAT_ID": 34431, "ELEMENT_SET_NO": 999, "REV_AT_EPOCH": 87188, "BSTAR": 0.0005372417, "MEAN_MOTION_DOT": 1.363e-05, "MEAN_MOTION_DDOT": 0}, "tle": {"line1": "1 34431U 93036RY  25349.92867941  .00001363  00000+0  53724-3 0  9991", "line2": "2 34431  74.0739 169.4271 0068146 154.2806 206.1759 14.28785587871885"}}, "geometry": {"type": "Point", "coordinates": [-12.729977835660545, 5.547756391726994]}}]}